start=new Date('2023-06-13T00:00:00.000Z').valueOf();
sats=[{"ARG_OF_PERICENTER":"73.3285","MEAN_ANOMALY":"286.7728","TLE_LINE2":"2 46578  53.0535 320.3004 0000216  73.3285 286.7728 15.06386510149056","RA_OF_ASC_NODE":"320.3004","PERIAPSIS":"547.105","CENTER_NAME":"EARTH","MEAN_MOTION_DOT":"0.00019188","COUNTRY_CODE":"US","DECAY_DATE":null,"APOAPSIS":"547.404","NORAD_CAT_ID":"46578","SEMIMAJOR_AXIS":"6925.390","OBJECT_NAME":"STARLINK-1683","REV_AT_EPOCH":"14905","RCS_SIZE":"LARGE","EPHEMERIS_TYPE":"0","LAUNCH_DATE":"2020-10-06","BSTAR":"0.00130400000000","ELEMENT_SET_NO":"999","GP_ID":"233797997","EPOCH":"2023-06-12T16:42:14.931360","MEAN_ELEMENT_THEORY":"SGP4","OBJECT_ID":"2020-070AY","MEAN_MOTION_DDOT":"0.0000000000000","INCLINATION":"53.0535","OBJECT_TYPE":"PAYLOAD","MEAN_MOTION":"15.06386510","TIME_SYSTEM":"UTC","REF_FRAME":"TEME","TLE_LINE1":"1 46578U 20070AY  23163.69600615  .00019188  00000-0  13040-2 0  9994","PERIOD":"95.593","SITE":"AFETR","CLASSIFICATION_TYPE":"U","FILE":"3931605","ECCENTRICITY":"0.00002160"},{"MEAN_MOTION":"15.06388114","REF_FRAME":"TEME","TIME_SYSTEM":"UTC","TLE_LINE1":"1 46579U 20070AZ  23163.89918735  .00020849  00000-0  14149-2 0  9999","PERIOD":"95.593","ECCENTRICITY":"0.00010350","FILE":"3931605","CLASSIFICATION_TYPE":"U","SITE":"AFETR","ELEMENT_SET_NO":"999","GP_ID":"233798242","INCLINATION":"53.0553","MEAN_MOTION_DDOT":"0.0000000000000","OBJECT_ID":"2020-070AZ","MEAN_ELEMENT_THEORY":"SGP4","EPOCH":"2023-06-12T21:34:49.787040","OBJECT_TYPE":"PAYLOAD","NORAD_CAT_ID":"46579","APOAPSIS":"547.967","DECAY_DATE":null,"COUNTRY_CODE":"US","REV_AT_EPOCH":"14887","OBJECT_NAME":"STARLINK-1705","SEMIMAJOR_AXIS":"6925.385","BSTAR":"0.00141490000000","EPHEMERIS_TYPE":"0","LAUNCH_DATE":"2020-10-06","RCS_SIZE":"LARGE","ARG_OF_PERICENTER":"82.6473","RA_OF_ASC_NODE":"334.3389","TLE_LINE2":"2 46579  53.0553 334.3389 0001035  82.6473 277.4633 15.06388114148873","MEAN_ANOMALY":"277.4633","CENTER_NAME":"EARTH","PERIAPSIS":"546.533","MEAN_MOTION_DOT":"0.00020849"},{"EPOCH":"2023-06-12T21:02:58.945632","MEAN_ELEMENT_THEORY":"SGP4","OBJECT_ID":"2020-070BA","MEAN_MOTION_DDOT":"0.0000000000000","INCLINATION":"53.0554","OBJECT_TYPE":"PAYLOAD","ELEMENT_SET_NO":"999","GP_ID":"233797495","TLE_LINE1":"1 46580U 20070BA  23163.87707113  .00008666  00000-0  59994-3 0  9996","PERIOD":"95.592","SITE":"AFETR","CLASSIFICATION_TYPE":"U","FILE":"3931605","ECCENTRICITY":"0.00009510","MEAN_MOTION":"15.06398702","TIME_SYSTEM":"UTC","REF_FRAME":"TEME","PERIAPSIS":"546.559","CENTER_NAME":"EARTH","MEAN_MOTION_DOT":"0.00008666","ARG_OF_PERICENTER":"65.3917","MEAN_ANOMALY":"294.7171","TLE_LINE2":"2 46580  53.0554 334.4398 0000951  65.3917 294.7171 15.06398702148877","RA_OF_ASC_NODE":"334.4398","SEMIMAJOR_AXIS":"6925.353","OBJECT_NAME":"STARLINK-1708","REV_AT_EPOCH":"14887","RCS_SIZE":"LARGE","LAUNCH_DATE":"2020-10-06","EPHEMERIS_TYPE":"0","BSTAR":"0.00059994000000","COUNTRY_CODE":"US","DECAY_DATE":null,"APOAPSIS":"547.876","NORAD_CAT_ID":"46580"},{"NORAD_CAT_ID":"46581","DECAY_DATE":null,"APOAPSIS":"547.857","COUNTRY_CODE":"US","OBJECT_NAME":"STARLINK-1712","REV_AT_EPOCH":"14878","SEMIMAJOR_AXIS":"6925.284","BSTAR":"0.00120630000000","LAUNCH_DATE":"2020-10-06","EPHEMERIS_TYPE":"0","RCS_SIZE":"LARGE","ARG_OF_PERICENTER":"76.2447","RA_OF_ASC_NODE":"334.0666","TLE_LINE2":"2 46581  53.0542 334.0666 0001023  76.2447 283.8655 15.06421111148786","MEAN_ANOMALY":"283.8655","CENTER_NAME":"EARTH","PERIAPSIS":"546.440","MEAN_MOTION_DOT":"0.00017742","MEAN_MOTION":"15.06421111","REF_FRAME":"TEME","TIME_SYSTEM":"UTC","TLE_LINE1":"1 46581U 20070BB  23162.84730637  .00017742  00000-0  12063-2 0  9990","PERIOD":"95.591","FILE":"3931023","ECCENTRICITY":"0.00010230","CLASSIFICATION_TYPE":"U","SITE":"AFETR","ELEMENT_SET_NO":"999","GP_ID":"233737184","INCLINATION":"53.0542","MEAN_MOTION_DDOT":"0.0000000000000","OBJECT_ID":"2020-070BB","MEAN_ELEMENT_THEORY":"SGP4","EPOCH":"2023-06-11T20:20:07.270368","OBJECT_TYPE":"PAYLOAD"},{"COUNTRY_CODE":"US","DECAY_DATE":null,"APOAPSIS":"548.190","NORAD_CAT_ID":"46582","RCS_SIZE":"LARGE","LAUNCH_DATE":"2020-10-06","EPHEMERIS_TYPE":"0","BSTAR":"0.00028047000000","SEMIMAJOR_AXIS":"6925.361","REV_AT_EPOCH":"14892","OBJECT_NAME":"STARLINK-1728","MEAN_ANOMALY":"264.7784","TLE_LINE2":"2 46582  53.0550 329.9570 0001392  95.3363 264.7784 15.06395815148929","RA_OF_ASC_NODE":"329.9570","ARG_OF_PERICENTER":"95.3363","MEAN_MOTION_DOT":"0.00003898","PERIAPSIS":"546.262","CENTER_NAME":"EARTH","TIME_SYSTEM":"UTC","REF_FRAME":"TEME","MEAN_MOTION":"15.06395815","SITE":"AFETR","CLASSIFICATION_TYPE":"U","FILE":"3931605","ECCENTRICITY":"0.00013920","PERIOD":"95.592","TLE_LINE1":"1 46582U 20070BC  23163.76141982  .00003898  00000-0  28047-3 0  9999","GP_ID":"233798497","ELEMENT_SET_NO":"999","OBJECT_TYPE":"PAYLOAD","EPOCH":"2023-06-12T18:16:26.672448","MEAN_ELEMENT_THEORY":"SGP4","OBJECT_ID":"2020-070BC","MEAN_MOTION_DDOT":"0.0000000000000","INCLINATION":"53.0550"},{"NORAD_CAT_ID":"46583","DECAY_DATE":null,"APOAPSIS":"548.391","COUNTRY_CODE":"US","BSTAR":"0.00040037000000","EPHEMERIS_TYPE":"0","LAUNCH_DATE":"2020-10-06","RCS_SIZE":"LARGE","REV_AT_EPOCH":"14864","OBJECT_NAME":"STARLINK-1729","SEMIMAJOR_AXIS":"6925.346","RA_OF_ASC_NODE":"349.7335","TLE_LINE2":"2 46583  53.0558 349.7335 0001703  90.5909 269.5275 15.06400795148647","MEAN_ANOMALY":"269.5275","ARG_OF_PERICENTER":"90.5909","MEAN_MOTION_DOT":"0.00005687","CENTER_NAME":"EARTH","PERIAPSIS":"546.032","REF_FRAME":"TEME","TIME_SYSTEM":"UTC","MEAN_MOTION":"15.06400795","ECCENTRICITY":"0.00017030","FILE":"3931605","CLASSIFICATION_TYPE":"U","SITE":"AFETR","TLE_LINE1":"1 46583U 20070BD  23163.81117945  .00005687  00000-0  40037-3 0  9999","PERIOD":"95.592","GP_ID":"233798742","ELEMENT_SET_NO":"999","OBJECT_TYPE":"PAYLOAD","INCLINATION":"53.0558","OBJECT_ID":"2020-070BD","MEAN_MOTION_DDOT":"0.0000000000000","MEAN_ELEMENT_THEORY":"SGP4","EPOCH":"2023-06-12T19:28:05.904480"},{"PERIAPSIS":"546.007","CENTER_NAME":"EARTH","MEAN_MOTION_DOT":"-0.00002187","ARG_OF_PERICENTER":"93.8714","MEAN_ANOMALY":"266.2478","RA_OF_ASC_NODE":"329.3499","TLE_LINE2":"2 46584  53.0554 329.3499 0001777  93.8714 266.2478 15.06392151148948","SEMIMAJOR_AXIS":"6925.373","REV_AT_EPOCH":"14894","OBJECT_NAME":"STARLINK-1732","EPHEMERIS_TYPE":"0","LAUNCH_DATE":"2020-10-06","RCS_SIZE":"LARGE","BSTAR":"-0.00012798000000","APOAPSIS":"548.468","DECAY_DATE":null,"COUNTRY_CODE":"US","NORAD_CAT_ID":"46584","MEAN_ELEMENT_THEORY":"SGP4","EPOCH":"2023-06-12T21:32:50.302752","INCLINATION":"53.0554","OBJECT_ID":"2020-070BE","MEAN_MOTION_DDOT":"0.0000000000000","OBJECT_TYPE":"PAYLOAD","ELEMENT_SET_NO":"999","GP_ID":"233796996","PERIOD":"95.593","TLE_LINE1":"1 46584U 20070BE  23163.89780443 -.00002187  00000-0 -12798-3 0  9994","SITE":"AFETR","ECCENTRICITY":"0.00017770","FILE":"3931605","CLASSIFICATION_TYPE":"U","MEAN_MOTION":"15.06392151","TIME_SYSTEM":"UTC","REF_FRAME":"TEME"},{"SITE":"AFETR","ECCENTRICITY":"0.00011630","FILE":"3931287","CLASSIFICATION_TYPE":"U","PERIOD":"95.592","TLE_LINE1":"1 46585U 20070BF  23163.45086007  .00000530  00000-0  54485-4 0  9990","TIME_SYSTEM":"UTC","REF_FRAME":"TEME","MEAN_MOTION":"15.06394347","OBJECT_TYPE":"PAYLOAD","MEAN_ELEMENT_THEORY":"SGP4","EPOCH":"2023-06-12T10:49:14.310048","INCLINATION":"53.0545","OBJECT_ID":"2020-070BF","MEAN_MOTION_DDOT":"0.0000000000000","GP_ID":"233763947","ELEMENT_SET_NO":"999","LAUNCH_DATE":"2020-10-06","EPHEMERIS_TYPE":"0","RCS_SIZE":"LARGE","BSTAR":"0.00005448500000","SEMIMAJOR_AXIS":"6925.366","OBJECT_NAME":"STARLINK-1736","REV_AT_EPOCH":"14887","APOAPSIS":"548.036","DECAY_DATE":null,"COUNTRY_CODE":"US","NORAD_CAT_ID":"46585","MEAN_MOTION_DOT":"0.00000530","PERIAPSIS":"546.425","CENTER_NAME":"EARTH","MEAN_ANOMALY":"281.9667","RA_OF_ASC_NODE":"331.3455","TLE_LINE2":"2 46585  53.0545 331.3455 0001163  78.1453 281.9667 15.06394347148874","ARG_OF_PERICENTER":"78.1453"},{"GP_ID":"233797998","ELEMENT_SET_NO":"999","OBJECT_TYPE":"PAYLOAD","MEAN_ELEMENT_THEORY":"SGP4","EPOCH":"2023-06-12T21:43:27.133824","INCLINATION":"53.0545","OBJECT_ID":"2020-070BG","MEAN_MOTION_DDOT":"0.0000000000000","TIME_SYSTEM":"UTC","REF_FRAME":"TEME","MEAN_MOTION":"15.06396215","SITE":"AFETR","FILE":"3931605","ECCENTRICITY":"0.00010260","CLASSIFICATION_TYPE":"U","TLE_LINE1":"1 46586U 20070BG  23163.90517516  .00008264  00000-0  57308-3 0  9993","PERIOD":"95.592","MEAN_ANOMALY":"278.7884","RA_OF_ASC_NODE":"329.3186","TLE_LINE2":"2 46586  53.0545 329.3186 0001026  81.3221 278.7884 15.06396215148949","ARG_OF_PERICENTER":"81.3221","MEAN_MOTION_DOT":"0.00008264","PERIAPSIS":"546.515","CENTER_NAME":"EARTH","DECAY_DATE":null,"APOAPSIS":"547.936","COUNTRY_CODE":"US","NORAD_CAT_ID":"46586","EPHEMERIS_TYPE":"0","LAUNCH_DATE":"2020-10-06","RCS_SIZE":"LARGE","BSTAR":"0.00057308000000","SEMIMAJOR_AXIS":"6925.360","OBJECT_NAME":"STARLINK-1737","REV_AT_EPOCH":"14894"},{"SEMIMAJOR_AXIS":"6925.375","REV_AT_EPOCH":"14892","OBJECT_NAME":"STARLINK-1746","RCS_SIZE":"LARGE","EPHEMERIS_TYPE":"0","LAUNCH_DATE":"2020-10-06","BSTAR":"0.00019603000000","COUNTRY_CODE":"US","APOAPSIS":"547.709","DECAY_DATE":null,"NORAD_CAT_ID":"46588","PERIAPSIS":"546.772","CENTER_NAME":"EARTH","MEAN_MOTION_DOT":"0.00002639","ARG_OF_PERICENTER":"327.6066","MEAN_ANOMALY":"32.4881","TLE_LINE2":"2 46588  53.0551 329.9903 0000676 327.6066  32.4881 15.06391210148924","RA_OF_ASC_NODE":"329.9903","TLE_LINE1":"1 46588U 20070BJ  23163.75405065  .00002639  00000-0  19603-3 0  9999","PERIOD":"95.593","SITE":"AFETR","CLASSIFICATION_TYPE":"U","FILE":"3931605","ECCENTRICITY":"0.00006760","MEAN_MOTION":"15.06391210","TIME_SYSTEM":"UTC","REF_FRAME":"TEME","EPOCH":"2023-06-12T18:05:49.976160","MEAN_ELEMENT_THEORY":"SGP4","OBJECT_ID":"2020-070BJ","MEAN_MOTION_DDOT":"0.0000000000000","INCLINATION":"53.0551","OBJECT_TYPE":"PAYLOAD","ELEMENT_SET_NO":"999","GP_ID":"233798243"}];
